BEESAT-4                
1 41619U 16040W   21186.95623668  .00002543  00000-0  10274-3 0  9996
2 41619  97.2685 242.5283 0008812 264.5320  95.4913 15.25625929267830
CAS-2T & KS-1Q          
1 41847U 16066G   21187.12086440  .00000214  00000-0  42013-4 0  9998
2 41847  98.6000 246.3297 0365639 164.5061 196.7683 14.38205408244563
NAYIF-1 (EO-88)         
1 42017U 17008BX  21186.69805285  .00002968  00000-0  11029-3 0  9992
2 42017  97.3152 253.9714 0007220  55.4793 304.7127 15.28298966244042
ZHUHAI-1 02 (CAS-4B)    
1 42759U 17034B   21187.42348534  .00000715  00000-0  56240-4 0  9998
2 42759  43.0183  76.7887 0010098 284.8261 244.2738 15.10254324224016
ZHUHAI-1 01 (CAS-4A)    
1 42761U 17034D   21187.21034521  .00000683  00000-0  54217-4 0  9992
2 42761  43.0180  77.0005 0010464 284.3428 219.6098 15.10341033223983
MAX VALIER SAT          
1 42778U 17036P   21187.41509950  .00001766  00000-0  76310-4 0  9998
2 42778  97.2536 235.4037 0013630 107.4864 252.7864 15.23683617224171
RADFXSAT (FOX-1B)       
1 43017U 17073E   21186.72809891  .00000475  00000-0  42537-4 0  9996
2 43017  97.7056  89.9927 0253469 240.6285 116.9402 14.79590404195822
FOX-1D (AO-92)          
1 43137U 18004AC  21186.76728154  .00001907  00000-0  78475-4 0  9991
2 43137  97.4063 260.6117 0009913 138.9397 221.2589 15.25335673193455
DIWATA-2B               
1 43678U 18084H   21187.57026358  .00000100  00000-0  15726-4 0  9990
2 43678  97.9259 312.9487 0009792 356.5786   3.5397 14.91760254146289
ES'HAIL 2               
1 43700U 18090A   21186.86739721  .00000153  00000-0  00000-0 0  9992
2 43700   0.0191  30.6597 0001200 104.6976 126.7619  1.00271752  9559
FOX-1CLIFF (AO-95)      
1 43770U 18099N   21187.45408339  .00000353  00000-0  37099-4 0  9996
2 43770  97.6640 257.2212 0014305   0.3028 359.8199 14.95347398141296
ITASAT 1                
1 43786U 18099AE  21187.43648194 -.00000038  00000-0  17470-5 0  9999
2 43786  97.6663 257.8954 0014895 353.2977   6.8043 14.95641097141328
JY1SAT (JO-97)          
1 43803U 18099AX  21187.46408503  .00000683  00000-0  66057-4 0  9999
2 43803  97.6621 257.6719 0014612 352.9889   7.1125 14.95889638141335
UWE-4                   
1 43880U 18111E   21186.69967113  .00000964  00000-0  88868-4 0  9996
2 43880  97.6866  94.1213 0013652  48.5008 311.7383 14.96899245137812
NEXUS (FO-99)           
1 43937U 19003F   21186.81599800  .00002218  00000-0  88861-4 0  9995
2 43937  97.1748 229.2618 0021577 310.3438  49.5916 15.25844604137068
PSAT2 (NO-104)          
1 44354U 19036R   21186.83210943  .00023473  00000-0  30841-3 0  9995
2 44354  28.5283   4.4719 0323152 115.2828 248.1607 15.14171964111761
BRICSAT2 (NO-103)       
1 44355U 19036S   21186.66454078  .00049199 -56353-5  51251-3 0  9995
2 44355  28.5274 317.5062 0257095 191.8186 167.6288 15.31313816112225
JAISAT-1                
1 44419U 19038F   21186.88198866  .00001403  00000-0  81101-4 0  9998
2 44419  97.5892 151.5164 0019381 247.3960 112.5221 15.13827386110583
DUCHIFAT-3              
1 44854U 19089C   21187.50451805  .00000655  00000-0  58694-4 0  9991
2 44854  36.9700 347.9685 0009860 294.2345  65.7375 14.99529115 85963
CAS-6 (TO-108)          
1 44881U 19093C   21187.44664470  .00000095  00000-0  18885-4 0  9999
2 44881  97.9234 266.0678 0013911 228.2499 131.7527 14.81460892 83546
RS-44 & BREEZE-KM R/B   
1 44909U 19096E   21186.84406135  .00000006  00000-0 -23470-4 0  9997
2 44909  82.5219 100.5960 0218450  50.2772 311.7359 12.79710628 71177
ORBITAL FACTORY 2 (OF-2)
1 45113U 19071C   21186.75469270  .00004222  00000-0  12961-3 0  9992
2 45113  51.6425 308.7686 0011818   1.9586 358.1442 15.35913683 79989
HUSKYSAT-1 (HO-107)     
1 45119U 19071J   21186.89596341  .00003138  00000-0  99132-4 0  9994
2 45119  51.6419 307.4564 0011240 359.3485   0.7482 15.35931857 80008
BY70-2                  
1 45857U 20042B   21187.47767716  .00001466  00000-0  21470-3 0  9995
2 45857  97.9830 263.0271 0012268 145.9975 214.2027 14.77087919 54355
SALSAT                  
1 46495U 20068K   21186.89660293  .00001040  00000-0  80678-4 0  9993
2 46495  97.6931 124.2810 0017251  14.6694 345.5029 15.03487621 42101
BY70-3                  
1 46839U 20079N   21187.49221332  .00003993  00000-0  12432-3 0  9992
2 46839  97.2396 260.9703 0008550 130.6112 286.4761 15.33826600 37128
RADFXSAT-2 (AO-109)     
1 47311U 21002C   21186.82186733  .00001155  00000-0  61801-4 0  9999
2 47311  60.6855 222.4338 0039278  58.3431 302.1477 15.21718381 25665
UVSQ-SAT                
1 47438U 21006AB  21187.16213329  .00001201  00000-0  71199-4 0  9996
2 47438  97.4862 248.0505 0013673  39.7681 320.4549 15.13188014 24883
DIY-1 (ARDUIQUBE)       
1 47963U 21022AH  21186.68415383  .00002890  00000-0  19475-3 0  9990
2 47963  97.5572  88.6952 0017976 241.3200 118.6221 15.07338551 14640
